CCSDS_OMM_VERS = 2.0
CREATION_DATE  = 
ORIGINATOR     = 

OBJECT_NAME    = SL-14 R/B
OBJECT_ID      = 1986-046B
CENTER_NAME    = EARTH
REF_FRAME      = TEME
TIME_SYSTEM    = UTC
MEAN_ELEMENT_THEORY = SGP/SGP4

EPOCH          = 2026-03-26T09:02:17.619648
MEAN_MOTION    = 14.85605893
ECCENTRICITY   = .0023339
INCLINATION    = 82.4798
RA_OF_ASC_NODE = 64.4102
ARG_OF_PERICENTER = 169.0401
MEAN_ANOMALY   = 191.1329

EPHEMERIS_TYPE = 0
CLASSIFICATION_TYPE = U
NORAD_CAT_ID   = 16792
ELEMENT_SET_NO = 999
REV_AT_EPOCH   = 12888
BSTAR          = .53675E-4
MEAN_MOTION_DOT = .491E-5
MEAN_MOTION_DDOT = 0

CCSDS_OMM_VERS = 2.0
CREATION_DATE  = 
ORIGINATOR     = 

OBJECT_NAME    = SL-14 R/B
OBJECT_ID      = 1986-055B
CENTER_NAME    = EARTH
REF_FRAME      = TEME
TIME_SYSTEM    = UTC
MEAN_ELEMENT_THEORY = SGP/SGP4

EPOCH          = 2026-03-26T10:46:58.771776
MEAN_MOTION    = 14.85656958
ECCENTRICITY   = .0017314
INCLINATION    = 82.5173
RA_OF_ASC_NODE = 110.9177
ARG_OF_PERICENTER = 277.3750
MEAN_ANOMALY   = 199.4452

EPHEMERIS_TYPE = 0
CLASSIFICATION_TYPE = U
NORAD_CAT_ID   = 16882
ELEMENT_SET_NO = 999
REV_AT_EPOCH   = 12185
BSTAR          = .47073E-4
MEAN_MOTION_DOT = .433E-5
MEAN_MOTION_DDOT = 0

CCSDS_OMM_VERS = 2.0
CREATION_DATE  = 
ORIGINATOR     = 

OBJECT_NAME    = AJISAI (EGS)
OBJECT_ID      = 1986-061A
CENTER_NAME    = EARTH
REF_FRAME      = TEME
TIME_SYSTEM    = UTC
MEAN_ELEMENT_THEORY = SGP/SGP4

EPOCH          = 2026-03-26T12:11:36.156768
MEAN_MOTION    = 12.44515624
ECCENTRICITY   = .0011329
INCLINATION    = 50.0107
RA_OF_ASC_NODE = 41.6295
ARG_OF_PERICENTER = 330.3501
MEAN_ANOMALY   = 136.7077

EPHEMERIS_TYPE = 0
CLASSIFICATION_TYPE = U
NORAD_CAT_ID   = 16908
ELEMENT_SET_NO = 999
REV_AT_EPOCH   = 47009
BSTAR          = -.20235E-4
MEAN_MOTION_DOT = -.1E-5
MEAN_MOTION_DDOT = 0

CCSDS_OMM_VERS = 2.0
CREATION_DATE  = 
ORIGINATOR     = 

OBJECT_NAME    = SL-14 R/B
OBJECT_ID      = 1987-024B
CENTER_NAME    = EARTH
REF_FRAME      = TEME
TIME_SYSTEM    = UTC
MEAN_ELEMENT_THEORY = SGP/SGP4

EPOCH          = 2026-03-26T09:41:37.656384
MEAN_MOTION    = 14.86147446
ECCENTRICITY   = .0017592
INCLINATION    = 82.5250
RA_OF_ASC_NODE = 77.0491
ARG_OF_PERICENTER = 200.7194
MEAN_ANOMALY   = 159.3312

EPHEMERIS_TYPE = 0
CLASSIFICATION_TYPE = U
NORAD_CAT_ID   = 17567
ELEMENT_SET_NO = 999
REV_AT_EPOCH   = 9061
BSTAR          = .52728E-4
MEAN_MOTION_DOT = .488E-5
MEAN_MOTION_DDOT = 0

CCSDS_OMM_VERS = 2.0
CREATION_DATE  = 
ORIGINATOR     = 

OBJECT_NAME    = COSMOS 1833
OBJECT_ID      = 1987-027A
CENTER_NAME    = EARTH
REF_FRAME      = TEME
TIME_SYSTEM    = UTC
MEAN_ELEMENT_THEORY = SGP/SGP4

EPOCH          = 2026-03-26T06:48:14.882112
MEAN_MOTION    = 14.13048683
ECCENTRICITY   = .0023399
INCLINATION    = 70.9176
RA_OF_ASC_NODE = 291.1414
ARG_OF_PERICENTER = 190.2449
MEAN_ANOMALY   = 169.8199

EPHEMERIS_TYPE = 0
CLASSIFICATION_TYPE = U
NORAD_CAT_ID   = 17589
ELEMENT_SET_NO = 999
REV_AT_EPOCH   = 1266
BSTAR          = -.12309E-3
MEAN_MOTION_DOT = -.279E-5
MEAN_MOTION_DDOT = 0

CCSDS_OMM_VERS = 2.0
CREATION_DATE  = 
ORIGINATOR     = 

OBJECT_NAME    = SL-16 R/B
OBJECT_ID      = 1987-027B
CENTER_NAME    = EARTH
REF_FRAME      = TEME
TIME_SYSTEM    = UTC
MEAN_ELEMENT_THEORY = SGP/SGP4

EPOCH          = 2026-03-26T11:47:35.275200
MEAN_MOTION    = 14.17165781
ECCENTRICITY   = .0002851
INCLINATION    = 71.0012
RA_OF_ASC_NODE = 241.0860
ARG_OF_PERICENTER = 102.0120
MEAN_ANOMALY   = 258.1323

EPHEMERIS_TYPE = 0
CLASSIFICATION_TYPE = U
NORAD_CAT_ID   = 17590
ELEMENT_SET_NO = 999
REV_AT_EPOCH   = 1772
BSTAR          = -.57704E-4
MEAN_MOTION_DOT = -.164E-5
MEAN_MOTION_DDOT = 0

CCSDS_OMM_VERS = 2.0
CREATION_DATE  = 
ORIGINATOR     = 

OBJECT_NAME    = SL-14 R/B
OBJECT_ID      = 1987-038B
CENTER_NAME    = EARTH
REF_FRAME      = TEME
TIME_SYSTEM    = UTC
MEAN_ELEMENT_THEORY = SGP/SGP4

EPOCH          = 2026-03-26T13:00:45.518400
MEAN_MOTION    = 14.85383726
ECCENTRICITY   = .0020708
INCLINATION    = 82.4978
RA_OF_ASC_NODE = 280.9277
ARG_OF_PERICENTER = 107.6614
MEAN_ANOMALY   = 252.6866

EPHEMERIS_TYPE = 0
CLASSIFICATION_TYPE = U
NORAD_CAT_ID   = 17912
ELEMENT_SET_NO = 999
REV_AT_EPOCH   = 8173
BSTAR          = .49505E-4
MEAN_MOTION_DOT = .452E-5
MEAN_MOTION_DDOT = 0

CCSDS_OMM_VERS = 2.0
CREATION_DATE  = 
ORIGINATOR     = 

OBJECT_NAME    = COSMOS 1844
OBJECT_ID      = 1987-041A
CENTER_NAME    = EARTH
REF_FRAME      = TEME
TIME_SYSTEM    = UTC
MEAN_ELEMENT_THEORY = SGP/SGP4

EPOCH          = 2026-03-26T12:18:58.488480
MEAN_MOTION    = 14.14554711
ECCENTRICITY   = .00309
INCLINATION    = 70.9013
RA_OF_ASC_NODE = 358.6917
ARG_OF_PERICENTER = 353.3514
MEAN_ANOMALY   = 6.7193

EPHEMERIS_TYPE = 0
CLASSIFICATION_TYPE = U
NORAD_CAT_ID   = 17973
ELEMENT_SET_NO = 999
REV_AT_EPOCH   = 596
BSTAR          = .19077E-3
MEAN_MOTION_DOT = .32E-5
MEAN_MOTION_DDOT = 0

CCSDS_OMM_VERS = 2.0
CREATION_DATE  = 
ORIGINATOR     = 

OBJECT_NAME    = SL-14 R/B
OBJECT_ID      = 1987-055B
CENTER_NAME    = EARTH
REF_FRAME      = TEME
TIME_SYSTEM    = UTC
MEAN_ELEMENT_THEORY = SGP/SGP4

EPOCH          = 2026-03-26T02:41:14.270208
MEAN_MOTION    = 14.85645523
ECCENTRICITY   = .00196984
INCLINATION    = 82.5012
RA_OF_ASC_NODE = 333.5567
ARG_OF_PERICENTER = 322.9634
MEAN_ANOMALY   = 37.0221

EPHEMERIS_TYPE = 0
CLASSIFICATION_TYPE = U
NORAD_CAT_ID   = 18153
ELEMENT_SET_NO = 999
REV_AT_EPOCH   = 7237
BSTAR          = .45892627E-4
MEAN_MOTION_DOT = .423E-5
MEAN_MOTION_DDOT = 0

CCSDS_OMM_VERS = 2.0
CREATION_DATE  = 
ORIGINATOR     = 

OBJECT_NAME    = COSMOS 1867
OBJECT_ID      = 1987-060A
CENTER_NAME    = EARTH
REF_FRAME      = TEME
TIME_SYSTEM    = UTC
MEAN_ELEMENT_THEORY = SGP/SGP4

EPOCH          = 2026-03-26T11:41:57.764832
MEAN_MOTION    = 14.31505508
ECCENTRICITY   = .0014766
INCLINATION    = 65.0090
RA_OF_ASC_NODE = 259.6607
ARG_OF_PERICENTER = 279.6396
MEAN_ANOMALY   = 80.3020

EPHEMERIS_TYPE = 0
CLASSIFICATION_TYPE = U
NORAD_CAT_ID   = 18187
ELEMENT_SET_NO = 999
REV_AT_EPOCH   = 2234
BSTAR          = .31751E-4
MEAN_MOTION_DOT = -.16E-6
MEAN_MOTION_DDOT = 0

CCSDS_OMM_VERS = 2.0
CREATION_DATE  = 
ORIGINATOR     = 

OBJECT_NAME    = SL-14 R/B
OBJECT_ID      = 1988-001B
CENTER_NAME    = EARTH
REF_FRAME      = TEME
TIME_SYSTEM    = UTC
MEAN_ELEMENT_THEORY = SGP/SGP4

EPOCH          = 2026-03-26T07:27:10.320768
MEAN_MOTION    = 14.85545719
ECCENTRICITY   = .0018117
INCLINATION    = 82.5162
RA_OF_ASC_NODE = 179.7326
ARG_OF_PERICENTER = 178.6706
MEAN_ANOMALY   = 181.4561

EPHEMERIS_TYPE = 0
CLASSIFICATION_TYPE = U
NORAD_CAT_ID   = 18749
ELEMENT_SET_NO = 999
REV_AT_EPOCH   = 4449
BSTAR          = .52827E-4
MEAN_MOTION_DOT = .482E-5
MEAN_MOTION_DDOT = 0

CCSDS_OMM_VERS = 2.0
CREATION_DATE  = 
ORIGINATOR     = 

OBJECT_NAME    = COSMOS 1933
OBJECT_ID      = 1988-020A
CENTER_NAME    = EARTH
REF_FRAME      = TEME
TIME_SYSTEM    = UTC
MEAN_ELEMENT_THEORY = SGP/SGP4

EPOCH          = 2026-03-26T09:37:09.940800
MEAN_MOTION    = 15.18137863
ECCENTRICITY   = .0005104
INCLINATION    = 82.5120
RA_OF_ASC_NODE = 234.3737
ARG_OF_PERICENTER = 131.8407
MEAN_ANOMALY   = 228.3263

EPHEMERIS_TYPE = 0
CLASSIFICATION_TYPE = U
NORAD_CAT_ID   = 18958
ELEMENT_SET_NO = 999
REV_AT_EPOCH   = 5276
BSTAR          = .20426E-3
MEAN_MOTION_DOT = .4199E-4
MEAN_MOTION_DDOT = 0

